NORAD_CAT_ID,OBJECT_NAME,OBJECT_TYPE,EPOCH,MEAN_MOTION,ECCENTRICITY,INCLINATION,RA_OF_ASC_NODE,ARG_OF_PERICENTER,MEAN_ANOMALY,BSTAR,MEAN_MOTION_DOT,MEAN_MOTION_DDOT,TLE_LINE0,TLE_LINE1,TLE_LINE2,SEMIMAJOR_AXIS,PERIOD,APOGEE,PERIGEE,DECAYED
50197.0,STARLINK-3267,PAYLOAD,2023-10-29 18:38:34,15.08849701,0.0001577,53.214,148.3977,84.1281,275.9891,0.00013311,1.832e-05,0.0,0 STARLINK-3267,1 50197U 21125AT  23302.77679170  .00001832  00000-0  13311-3 0  9993,2 50197  53.2140 148.3977 0001577  84.1281 275.9891 15.08849701106137,6917.851,95.437,540.807,538.625,0.0
50197.0,STARLINK-3267,PAYLOAD,2023-10-29 20:13:57,15.08850026,0.0001342,53.2137,148.1004,86.704,273.4106,0.00024262,3.577e-05,0.0,0 STARLINK-3267,1 50197U 21125AT  23302.84303212  .00003577  00000-0  24262-3 0  9997,2 50197  53.2137 148.1004 0001342  86.7040 273.4106 15.08850026106676,6917.85,95.437,540.643,538.786,0.0
50197.0,STARLINK-3267,PAYLOAD,2023-10-30 20:04:45,15.08842476,0.0001603,53.216,143.6388,97.4141,262.7034,0.00017792,2.545e-05,0.0,0 STARLINK-3267,1 50197U 21125AT  23303.83663677  .00002545  00000-0  17792-3 0  9995,2 50197  53.2160 143.6388 0001603  97.4141 262.7034 15.08842476106297,6917.873,95.437,540.847,538.629,0.0
50197.0,STARLINK-3267,PAYLOAD,2023-10-31 13:33:59,15.08839482,0.0001774,53.2144,140.3633,101.0388,259.0804,-1.2553e-05,-4.88e-06,0.0,0 STARLINK-3267,1 50197U 21125AT  23304.56527751 -.00000488  00000-0 -12553-4 0  9995,2 50197  53.2144 140.3633 0001774 101.0388 259.0804 15.08839482106938,6917.882,95.438,540.974,538.52,0.0
50197.0,STARLINK-3267,PAYLOAD,2023-10-31 19:55:32,15.08842357,0.0001246,53.2144,139.179,90.752,269.3615,9.0999e-05,1.161e-05,0.0,0 STARLINK-3267,1 50197U 21125AT  23304.83023646  .00001161  00000-0  90999-4 0  9996,2 50197  53.2144 139.1790 0001246  90.7520 269.3615 15.08842357106977,6917.873,95.437,540.6,538.876,0.0
50197.0,STARLINK-3267,PAYLOAD,2023-11-01 11:49:24,15.0883795,0.0001223,53.2136,136.2054,91.3372,268.7761,0.00011764,1.585e-05,0.0,0 STARLINK-3267,1 50197U 21125AT  23305.49263907  .00001585  00000-0  11764-3 0  9997,2 50197  53.2136 136.2054 0001223  91.3372 268.7761 15.08837950107076,6917.887,95.438,540.598,538.906,0.0
50197.0,STARLINK-3267,PAYLOAD,2023-11-01 19:46:19,15.08839211,0.0001251,53.2146,134.7189,91.6888,268.4248,0.00012323,1.674e-05,0.0,0 STARLINK-3267,1 50197U 21125AT  23305.82383887  .00001674  00000-0  12323-3 0  9995,2 50197  53.2146 134.7189 0001251  91.6888 268.4248 15.08839211106590,6917.883,95.438,540.613,538.882,0.0
50197.0,STARLINK-3267,PAYLOAD,2023-11-02 13:15:34,15.08837405,0.0001368,53.2157,131.4485,92.8249,267.2899,9.4239e-06,-1.38e-06,0.0,0 STARLINK-3267,1 50197U 21125AT  23306.55248039 -.00000138  00000-0  94239-5 0  9998,2 50197  53.2157 131.4485 0001368  92.8249 267.2899 15.08837405107232,6917.888,95.438,540.7,538.807,0.0
50197.0,STARLINK-3267,PAYLOAD,2023-11-02 19:37:07,15.08838358,0.0001218,53.2153,130.2583,91.9812,268.132,5.8906e-05,6.5e-06,0.0,0 STARLINK-3267,1 50197U 21125AT  23306.81744215  .00000650  00000-0  58906-4 0  9992,2 50197  53.2153 130.2583 0001218  91.9812 268.1320 15.08838358107275,6917.885,95.438,540.593,538.908,0.0
50197.0,STARLINK-3267,PAYLOAD,2023-11-03 03:34:02,15.08839826,0.0001301,53.215,128.7706,96.2488,263.8652,2.5955e-05,1.25e-06,0.0,0 STARLINK-3267,1 50197U 21125AT  23307.14864181  .00000125  00000-0  25955-4 0  9999,2 50197  53.2150 128.7706 0001301  96.2488 263.8652 15.08839826106798,6917.881,95.438,540.646,538.846,0.0
50197.0,STARLINK-3267,PAYLOAD,2023-11-03 13:06:21,15.08842542,0.000103,53.2151,126.9861,88.4282,271.6828,6.2527e-05,7.08e-06,0.0,0 STARLINK-3267,1 50197U 21125AT  23307.54608001  .00000708  00000-0  62527-4 0  9993,2 50197  53.2151 126.9861 0001030  88.4282 271.6828 15.08842542107382,6917.873,95.437,540.45,539.025,0.0
50197.0,STARLINK-3267,PAYLOAD,2023-11-03 22:38:39,15.08838648,0.0001203,53.2158,125.202,89.9535,270.1595,0.00027041,4.018e-05,0.0,0 STARLINK-3267,1 50197U 21125AT  23307.94351845  .00004018  00000-0  27041-3 0  9997,2 50197  53.2158 125.2020 0001203  89.9535 270.1595 15.08838648107441,6917.885,95.438,540.582,538.917,0.0
50197.0,STARLINK-3267,PAYLOAD,2023-11-04 11:21:44,15.08847467,0.0001158,53.2159,122.8233,85.7716,274.3409,0.00019032,2.743e-05,0.0,0 STARLINK-3267,1 50197U 21125AT  23308.47343219  .00002743  00000-0  19032-3 0  9996,2 50197  53.2159 122.8233 0001158  85.7716 274.3409 15.08847467106993,6917.858,95.437,540.524,538.921,0.0
50197.0,STARLINK-3267,PAYLOAD,2023-11-04 19:18:41,15.08839915,0.0001191,53.2159,121.3363,84.0466,276.0662,7.0081e-05,8.28e-06,0.0,0 STARLINK-3267,1 50197U 21125AT  23308.80464310  .00000828  00000-0  70081-4 0  9993,2 50197  53.2159 121.3363 0001191  84.0466 276.0662 15.08839915107048,6917.881,95.438,540.57,538.922,0.0
50197.0,STARLINK-3267,PAYLOAD,2023-11-05 04:50:59,15.0884665,0.0001194,53.216,119.5525,87.008,273.1049,0.00012561,1.712e-05,0.0,0 STARLINK-3267,1 50197U 21125AT  23309.20207778  .00001712  00000-0  12561-3 0  9992,2 50197  53.2160 119.5525 0001194  87.0080 273.1049 15.08846650107105,6917.86,95.437,540.551,538.899,0.0
50197.0,STARLINK-3267,PAYLOAD,2023-11-05 17:34:04,15.08849359,0.0001151,53.2152,117.1733,88.4604,271.652,0.00018926,2.726e-05,0.0,0 STARLINK-3267,1 50197U 21125AT  23309.73199537  .00002726  00000-0  18926-3 0  9990,2 50197  53.2152 117.1733 0001151  88.4604 271.6520 15.08849359107714,6917.852,95.437,540.513,538.921,0.0
50197.0,STARLINK-3267,PAYLOAD,2023-11-06 11:03:18,15.0885144,0.0001292,53.2139,113.9021,87.3832,272.7308,0.00024673,3.642e-05,0.0,0 STARLINK-3267,1 50197U 21125AT  23310.46063220  .00003642  00000-0  24673-3 0  9995,2 50197  53.2139 113.9021 0001292  87.3832 272.7308 15.08851440107293,6917.845,95.437,540.604,538.817,0.0
50197.0,STARLINK-3267,PAYLOAD,2023-11-06 15:49:27,15.08853978,0.0001439,53.215,113.0092,86.8873,273.2284,0.00023046,3.383e-05,0.0,0 STARLINK-3267,1 50197U 21125AT  23310.65934975  .00003383  00000-0  23046-3 0  9995,2 50197  53.2150 113.0092 0001439  86.8873 273.2284 15.08853978107856,6917.838,95.437,540.698,538.707,0.0
50197.0,STARLINK-3267,PAYLOAD,2023-11-07 10:54:06,15.08838164,0.0002124,53.2138,109.4409,91.6976,268.4259,-6.1421e-05,-1.266e-05,0.0,0 STARLINK-3267,1 50197U 21125AT  23311.45423739 -.00001266  00000-0 -61421-4 0  9995,2 50197  53.2138 109.4409 0002124  91.6976 268.4259 15.08838164107446,6917.886,95.438,541.22,538.282,0.0
50197.0,STARLINK-3267,PAYLOAD,2023-11-07 14:04:52,15.08823985,0.0001433,53.2141,108.8459,96.795,263.3205,-0.00031655,-5.32e-05,0.0,0 STARLINK-3267,1 50197U 21125AT  23311.58672131 -.00005320  00000-0 -31655-3 0  9991,2 50197  53.2141 108.8459 0001433  96.7950 263.3205 15.08823985107998,6917.929,95.439,540.786,538.803,0.0
50197.0,STARLINK-3267,PAYLOAD,2023-11-07 17:15:39,15.08822831,0.0001385,53.2148,108.2527,88.3433,271.7718,-0.00029253,-4.938e-05,0.0,0 STARLINK-3267,1 50197U 21125AT  23311.71920348 -.00004938  00000-0 -29253-3 0  9997,2 50197  53.2148 108.2527 0001385  88.3433 271.7718 15.08822831107489,6917.933,95.439,540.756,538.84,0.0
50197.0,STARLINK-3267,PAYLOAD,2023-11-08 10:44:53,15.08832529,0.0001529,53.2167,104.9823,86.2301,273.8866,9.5014e-05,1.224e-05,0.0,0 STARLINK-3267,1 50197U 21125AT  23312.44784663  .00001224  00000-0  95014-4 0  9998,2 50197  53.2167 104.9823 0001529  86.2301 273.8866 15.08832529107597,6917.903,95.438,540.826,538.71,0.0
50197.0,STARLINK-3267,PAYLOAD,2023-11-08 13:55:40,15.0883707,0.0001456,53.2159,104.3875,86.3862,273.7296,0.000212,3.087e-05,0.0,0 STARLINK-3267,1 50197U 21125AT  23312.58032594  .00003087  00000-0  21200-3 0  9996,2 50197  53.2159 104.3875 0001456  86.3862 273.7296 15.08837070108145,6917.889,95.438,540.762,538.747,0.0
50197.0,STARLINK-3267,PAYLOAD,2023-11-08 17:06:26,15.08842911,0.0001341,53.216,103.7933,85.2632,274.8513,0.00052819,8.129e-05,0.0,0 STARLINK-3267,1 50197U 21125AT  23312.71280653  .00008129  00000-0  52819-3 0  9994,2 50197  53.2160 103.7933 0001341  85.2632 274.8513 15.08842911108167,6917.871,95.437,540.664,538.809,0.0
50197.0,STARLINK-3267,PAYLOAD,2023-11-09 13:46:27,15.08844415,0.0001386,53.2155,99.9286,88.0208,272.0943,0.00034795,5.255e-05,0.0,0 STARLINK-3267,1 50197U 21125AT  23313.57392823  .00005255  00000-0  34795-3 0  9992,2 50197  53.2155  99.9286 0001386  88.0208 272.0943 15.08844415108299,6917.867,95.437,540.691,538.773,0.0
50197.0,STARLINK-3267,PAYLOAD,2023-11-09 16:57:13,15.08845281,0.0001472,53.2157,99.3333,91.8093,268.3068,0.00035704,5.4e-05,0.0,0 STARLINK-3267,1 50197U 21125AT  23313.70640681  .00005400  00000-0  35704-3 0  9998,2 50197  53.2157  99.3333 0001472  91.8093 268.3068 15.08845281107789,6917.864,95.437,540.748,538.711,0.0
50197.0,STARLINK-3267,PAYLOAD,2023-11-10 02:29:31,15.08859978,0.0001514,53.2169,97.5491,97.0245,263.0919,0.00048104,7.38e-05,0.0,0 STARLINK-3267,1 50197U 21125AT  23314.10383911  .00007380  00000-0  48104-3 0  9990,2 50197  53.2169  97.5491 0001514  97.0245 263.0919 15.08859978107843,6917.819,95.436,540.732,538.637,0.0
50197.0,STARLINK-3267,PAYLOAD,2023-11-10 13:37:13,15.08864912,0.0001581,53.2176,95.4677,100.5828,259.5342,0.00040019,6.091e-05,0.0,0 STARLINK-3267,1 50197U 21125AT  23314.56751242  .00006091  00000-0  40019-3 0  9991,2 50197  53.2176  95.4677 0001581 100.5828 259.5342 15.08864912108446,6917.804,95.436,540.763,538.576,0.0
50197.0,STARLINK-3267,PAYLOAD,2023-11-10 16:47:59,15.08861866,0.0001552,53.2156,94.8709,95.0233,265.0936,0.00027849,4.15e-05,0.0,0 STARLINK-3267,1 50197U 21125AT  23314.69999094  .00004150  00000-0  27849-3 0  9994,2 50197  53.2156  94.8709 0001552  95.0233 265.0936 15.08861866108467,6917.814,95.436,540.752,538.605,0.0
50197.0,STARLINK-3267,PAYLOAD,2023-11-11 13:28:00,15.08837181,0.0001198,53.2172,91.0071,94.4352,265.6777,-9.7376e-05,-1.837e-05,0.0,0 STARLINK-3267,1 50197U 21125AT  23315.56112085 -.00001837  00000-0 -97376-4 0  9992,2 50197  53.2172  91.0071 0001198  94.4352 265.6777 15.08837181108593,6917.889,95.438,540.583,538.925,0.0
